[{"OBJECT_NAME":"AEROCUBE 4.5A","OBJECT_ID":"2012-048K","EPOCH":"2026-03-09T23:30:53.651232","MEAN_MOTION":15.62097136,"ECCENTRICITY":0.00407508,"INCLINATION":64.6384,"RA_OF_ASC_NODE":19.0525,"ARG_OF_PERICENTER":211.9552,"MEAN_ANOMALY":147.9122,"EPHEMERIS_TYPE":0,"CLASSIFICATION_TYPE":"U","NORAD_CAT_ID":38767,"ELEMENT_SET_NO":999,"REV_AT_EPOCH":35703,"BSTAR":0.0010922172,"MEAN_MOTION_DOT":0.00101362,"MEAN_MOTION_DDOT":0},{"OBJECT_NAME":"STARLINK-11370 [DTC]","OBJECT_ID":"2024-187L","EPOCH":"2026-03-09T22:02:49.431552","MEAN_MOTION":15.69698124,"ECCENTRICITY":0.00010075,"INCLINATION":53.1595,"RA_OF_ASC_NODE":295.3142,"ARG_OF_PERICENTER":49.3297,"MEAN_ANOMALY":310.7808,"EPHEMERIS_TYPE":0,"CLASSIFICATION_TYPE":"U","NORAD_CAT_ID":61584,"ELEMENT_SET_NO":999,"REV_AT_EPOCH":8078,"BSTAR":2.0715853e-5,"MEAN_MOTION_DOT":1.921e-5,"MEAN_MOTION_DDOT":0}]
